{
  "links" : {
    "next" : "https://api.nasa.gov/neo/rest/v1/feed?start_date=2010-08-16&end_date=2010-08-16&detailed=true&api_key=t0TVs3DtDT2H8Oy2Zy8m2eVrNsAVKAexjcZXUckd",
    "prev" : "https://api.nasa.gov/neo/rest/v1/feed?start_date=2010-08-14&end_date=2010-08-14&detailed=true&api_key=t0TVs3DtDT2H8Oy2Zy8m2eVrNsAVKAexjcZXUckd",
    "self" : "https://api.nasa.gov/neo/rest/v1/feed?start_date=2010-08-15&end_date=2010-08-15&detailed=true&api_key=t0TVs3DtDT2H8Oy2Zy8m2eVrNsAVKAexjcZXUckd"
  },
  "element_count" : 5,
  "near_earth_objects" : {
    "2010-08-15" : [ {
      "links" : {
        "self" : "https://api.nasa.gov/neo/rest/v1/neo/3384185?api_key=t0TVs3DtDT2H8Oy2Zy8m2eVrNsAVKAexjcZXUckd"
      },
      "neo_reference_id" : "3384185",
      "name" : "(2007 RT12)",
      "nasa_jpl_url" : "http://ssd.jpl.nasa.gov/sbdb.cgi?sstr=3384185",
      "absolute_magnitude_h" : 23.9,
      "estimated_diameter" : {
        "kilometers" : {
          "estimated_diameter_min" : 0.04411182,
          "estimated_diameter_max" : 0.0986370281
        },
        "meters" : {
          "estimated_diameter_min" : 44.1118199997,
          "estimated_diameter_max" : 98.6370281305
        },
        "miles" : {
          "estimated_diameter_min" : 0.0274098057,
          "estimated_diameter_max" : 0.0612901888
        },
        "feet" : {
          "estimated_diameter_min" : 144.7238235278,
          "estimated_diameter_max" : 323.6123073718
        }
      },
      "is_potentially_hazardous_asteroid" : false,
      "close_approach_data" : [ {
        "close_approach_date" : "2010-08-15",
        "epoch_date_close_approach" : 1281855600000,
        "relative_velocity" : {
          "kilometers_per_second" : "13.7546334698",
          "kilometers_per_hour" : "49516.6804911803",
          "miles_per_hour" : "30767.7396085337"
        },
        "miss_distance" : {
          "astronomical" : "0.2973914117",
          "lunar" : "115.685256958",
          "kilometers" : "44489124",
          "miles" : "27644260"
        },
        "orbiting_body" : "Earth"
      } ],
      "orbital_data" : {
        "orbit_id" : "15",
        "orbit_determination_date" : "2017-04-06 09:06:04",
        "orbit_uncertainty" : "3",
        "minimum_orbit_intersection" : ".0441378",
        "jupiter_tisserand_invariant" : "5.987",
        "epoch_osculation" : "2458000.5",
        "eccentricity" : ".1598919357533941",
        "semi_major_axis" : "1.016989883658047",
        "inclination" : "4.250709973917679",
        "ascending_node_longitude" : "167.5976211119246",
        "orbital_period" : "374.6048330071443",
        "perihelion_distance" : ".8543814025183426",
        "perihelion_argument" : "43.35217731072181",
        "aphelion_distance" : "1.179598364797751",
        "perihelion_time" : "2457967.057972414135",
        "mean_anomaly" : "32.13821304511015",
        "mean_motion" : ".9610126946577174",
        "equinox" : "J2000"
      }
    }, {
      "links" : {
        "self" : "https://api.nasa.gov/neo/rest/v1/neo/3508131?api_key=t0TVs3DtDT2H8Oy2Zy8m2eVrNsAVKAexjcZXUckd"
      },
      "neo_reference_id" : "3508131",
      "name" : "(2010 CB55)",
      "nasa_jpl_url" : "http://ssd.jpl.nasa.gov/sbdb.cgi?sstr=3508131",
      "absolute_magnitude_h" : 22.7,
      "estimated_diameter" : {
        "kilometers" : {
          "estimated_diameter_min" : 0.0766575574,
          "estimated_diameter_max" : 0.1714115092
        },
        "meters" : {
          "estimated_diameter_min" : 76.6575573531,
          "estimated_diameter_max" : 171.4115092306
        },
        "miles" : {
          "estimated_diameter_min" : 0.0476327831,
          "estimated_diameter_max" : 0.1065101409
        },
        "feet" : {
          "estimated_diameter_min" : 251.5011804664,
          "estimated_diameter_max" : 562.3737359442
        }
      },
      "is_potentially_hazardous_asteroid" : false,
      "close_approach_data" : [ {
        "close_approach_date" : "2010-08-15",
        "epoch_date_close_approach" : 1281855600000,
        "relative_velocity" : {
          "kilometers_per_second" : "13.7810299994",
          "kilometers_per_hour" : "49611.7079978202",
          "miles_per_hour" : "30826.7860056456"
        },
        "miss_distance" : {
          "astronomical" : "0.0476254758",
          "lunar" : "18.526309967",
          "kilometers" : "7124669.5",
          "miles" : "4427064.5"
        },
        "orbiting_body" : "Earth"
      } ],
      "orbital_data" : {
        "orbit_id" : "22",
        "orbit_determination_date" : "2017-04-06 08:58:23",
        "orbit_uncertainty" : "0",
        "minimum_orbit_intersection" : ".0440685",
        "jupiter_tisserand_invariant" : "5.422",
        "epoch_osculation" : "2458000.5",
        "eccentricity" : ".1480468163448711",
        "semi_major_axis" : "1.133197833343387",
        "inclination" : "25.92016783109386",
        "ascending_node_longitude" : "144.6288523073568",
        "orbital_period" : "440.6127194948093",
        "perihelion_distance" : ".965431501827993",
        "perihelion_argument" : "108.4373716680622",
        "aphelion_distance" : "1.300964164858782",
        "perihelion_time" : "2457999.800190236255",
        "mean_anomaly" : ".5717754023010517",
        "mean_motion" : ".8170440481445089",
        "equinox" : "J2000"
      }
    } ]
  }
}